{
  "type": "FeatureCollection",
  "features": [
    {
      "type": "Feature",
      "properties": {
        "norad_id": 30739,
        "name": "FENGYUN 1C DEB",
        "group": "fengyun-1c-debris",
        "lat": -65.65523478004273,
        "lon": 140.19442884781807,
        "alt_km": 804.6720334214297,
        "timestamp": "2025-12-18T23:35:49.338984+00:00",
        "meta_object_name": "FENGYUN 1C DEB",
        "meta_object_id": "1999-025ASZ",
        "meta_epoch": "2025-12-18T11:15:44.707680",
        "meta_mean_motion": 14.14963107,
        "meta_eccentricity": 0.01003032,
        "meta_inclination": 98.6927,
        "meta_ra_of_asc_node": 339.4565,
        "meta_arg_of_pericenter": 300.6756,
        "meta_mean_anomaly": 210.864,
        "meta_ephemeris_type": 0,
        "meta_classification_type": "U",
        "meta_norad_cat_id": 30739,
        "meta_element_set_no": 999,
        "meta_rev_at_epoch": 96944,
        "meta_bstar": 0.00035308806,
        "meta_mean_motion_dot": 6.73e-06,
        "meta_mean_motion_ddot": 0,
        "tle_line1": "1 30739U 99025ASZ 25352.46926745  .00000673  00000+0  35309-3 0  9995",
        "tle_line2": "2 30739  98.6927 339.4565 0100303 300.6756 210.8640 14.14963107969443"
      },
      "geometry": {
        "type": "Point",
        "coordinates": [
          140.19442884781807,
          -65.65523478004273
        ]
      }
    },
    {
      "type": "Feature",
      "properties": {
        "norad_id": 30740,
        "name": "FENGYUN 1C DEB",
        "group": "fengyun-1c-debris",
        "lat": 15.657440685846629,
        "lon": 95.84337312251687,
        "alt_km": 724.1247762237399,
        "timestamp": "2025-12-18T23:35:49.338995+00:00",
        "meta_object_name": "FENGYUN 1C DEB",
        "meta_object_id": "1999-025ATA",
        "meta_epoch": "2025-12-17T17:45:18.988704",
        "meta_mean_motion": 14.52017431,
        "meta_eccentricity": 0.00312837,
        "meta_inclination": 98.6894,
        "meta_ra_of_asc_node": 97.0142,
        "meta_arg_of_pericenter": 121.3428,
        "meta_mean_anomaly": 239.0835,
        "meta_ephemeris_type": 0,
        "meta_classification_type": "U",
        "meta_norad_cat_id": 30740,
        "meta_element_set_no": 999,
        "meta_rev_at_epoch": 97720,
        "meta_bstar": 0.001843241,
        "meta_mean_motion_dot": 7.454e-05,
        "meta_mean_motion_ddot": 0,
        "tle_line1": "1 30740U 99025ATA 25351.73980311  .00007454  00000+0  18432-2 0  9996",
        "tle_line2": "2 30740  98.6894  97.0142 0031283 121.3428 239.0835 14.52017431977204"
      },
      "geometry": {
        "type": "Point",
        "coordinates": [
          95.84337312251687,
          15.657440685846629
        ]
      }
    },
    {
      "type": "Feature",
      "properties": {
        "norad_id": 30741,
        "name": "FENGYUN 1C DEB",
        "group": "fengyun-1c-debris",
        "lat": 78.47070287910415,
        "lon": -129.44805771614844,
        "alt_km": 835.7881844776712,
        "timestamp": "2025-12-18T23:35:49.339006+00:00",
        "meta_object_name": "FENGYUN 1C DEB",
        "meta_object_id": "1999-025ATB",
        "meta_epoch": "2025-12-18T11:58:03.461088",
        "meta_mean_motion": 14.13237884,
        "meta_eccentricity": 0.00071819,
        "meta_inclination": 98.6794,
        "meta_ra_of_asc_node": 1.5928,
        "meta_arg_of_pericenter": 102.84,
        "meta_mean_anomaly": 50.8764,
        "meta_ephemeris_type": 0,
        "meta_classification_type": "U",
        "meta_norad_cat_id": 30741,
        "meta_element_set_no": 999,
        "meta_rev_at_epoch": 96900,
        "meta_bstar": 0.0001396593,
        "meta_mean_motion_dot": 2.19e-06,
        "meta_mean_motion_ddot": 0,
        "tle_line1": "1 30741U 99025ATB 25352.49865117  .00000219  00000+0  13966-3 0  9997",
        "tle_line2": "2 30741  98.6794   1.5928 0007181 102.8400  50.8764 14.13237884969002"
      },
      "geometry": {
        "type": "Point",
        "coordinates": [
          -129.44805771614844,
          78.47070287910415
        ]
      }
    },
    {
      "type": "Feature",
      "properties": {
        "norad_id": 30742,
        "name": "FENGYUN 1C DEB",
        "group": "fengyun-1c-debris",
        "lat": 31.69090770504714,
        "lon": 31.79848874492894,
        "alt_km": 907.7559502602135,
        "timestamp": "2025-12-18T23:35:49.339017+00:00",
        "meta_object_name": "FENGYUN 1C DEB",
        "meta_object_id": "1999-025ATC",
        "meta_epoch": "2025-12-18T09:52:34.407840",
        "meta_mean_motion": 14.10398624,
        "meta_eccentricity": 0.00714285,
        "meta_inclination": 98.8679,
        "meta_ra_of_asc_node": 36.7659,
        "meta_arg_of_pericenter": 210.9636,
        "meta_mean_anomaly": 160.1292,
        "meta_ephemeris_type": 0,
        "meta_classification_type": "U",
        "meta_norad_cat_id": 30742,
        "meta_element_set_no": 999,
        "meta_rev_at_epoch": 96122,
        "meta_bstar": 0.0013633111,
        "meta_mean_motion_dot": 2.437e-05,
        "meta_mean_motion_ddot": 0,
        "tle_line1": "1 30742U 99025ATC 25352.41150935  .00002437  00000+0  13633-2 0  9999",
        "tle_line2": "2 30742  98.8679  36.7659 0071428 210.9636 160.1292 14.10398624961229"
      },
      "geometry": {
        "type": "Point",
        "coordinates": [
          31.79848874492894,
          31.69090770504714
        ]
      }
    },
    {
      "type": "Feature",
      "properties": {
        "norad_id": 30744,
        "name": "FENGYUN 1C DEB",
        "group": "fengyun-1c-debris",
        "lat": 37.253867843583926,
        "lon": -33.55037012789164,
        "alt_km": 598.5377532125076,
        "timestamp": "2025-12-18T23:35:49.339027+00:00",
        "meta_object_name": "FENGYUN 1C DEB",
        "meta_object_id": "1999-025ATE",
        "meta_epoch": "2025-12-18T08:35:27.234240",
        "meta_mean_motion": 14.89980411,
        "meta_eccentricity": 0.00103843,
        "meta_inclination": 98.73,
        "meta_ra_of_asc_node": 139.0486,
        "meta_arg_of_pericenter": 261.9445,
        "meta_mean_anomaly": 128.4317,
        "meta_ephemeris_type": 0,
        "meta_classification_type": "U",
        "meta_norad_cat_id": 30744,
        "meta_element_set_no": 999,
        "meta_rev_at_epoch": 98172,
        "meta_bstar": 0.0042560415,
        "meta_mean_motion_dot": 0.00041227,
        "meta_mean_motion_ddot": 0,
        "tle_line1": "1 30744U 99025ATE 25352.35795410  .00041227  00000+0  42560-2 0  9998",
        "tle_line2": "2 30744  98.7300 139.0486 0010384 261.9445 128.4317 14.89980411981723"
      },
      "geometry": {
        "type": "Point",
        "coordinates": [
          -33.55037012789164,
          37.253867843583926
        ]
      }
    },
    {
      "type": "Feature",
      "properties": {
        "norad_id": 30746,
        "name": "FENGYUN 1C DEB",
        "group": "fengyun-1c-debris",
        "lat": 32.62659386529743,
        "lon": 167.94081021117444,
        "alt_km": 799.6120054592102,
        "timestamp": "2025-12-18T23:35:49.339038+00:00",
        "meta_object_name": "FENGYUN 1C DEB",
        "meta_object_id": "1999-025ATG",
        "meta_epoch": "2025-12-18T11:47:37.530240",
        "meta_mean_motion": 14.27527971,
        "meta_eccentricity": 0.00460861,
        "meta_inclination": 99.0573,
        "meta_ra_of_asc_node": 173.2925,
        "meta_arg_of_pericenter": 301.5339,
        "meta_mean_anomaly": 85.1151,
        "meta_ephemeris_type": 0,
        "meta_classification_type": "U",
        "meta_norad_cat_id": 30746,
        "meta_element_set_no": 999,
        "meta_rev_at_epoch": 97528,
        "meta_bstar": 0.0003758442,
        "meta_mean_motion_dot": 8.86e-06,
        "meta_mean_motion_ddot": 0,
        "tle_line1": "1 30746U 99025ATG 25352.49140660  .00000886  00000+0  37584-3 0  9993",
        "tle_line2": "2 30746  99.0573 173.2925 0046086 301.5339  85.1151 14.27527971975289"
      },
      "geometry": {
        "type": "Point",
        "coordinates": [
          167.94081021117444,
          32.62659386529743
        ]
      }
    },
    {
      "type": "Feature",
      "properties": {
        "norad_id": 30749,
        "name": "FENGYUN 1C DEB",
        "group": "fengyun-1c-debris",
        "lat": 51.263629940664934,
        "lon": -149.14463706245093,
        "alt_km": 887.3958680669984,
        "timestamp": "2025-12-18T23:35:49.339049+00:00",
        "meta_object_name": "FENGYUN 1C DEB",
        "meta_object_id": "1999-025ATK",
        "meta_epoch": "2025-12-18T12:41:28.446144",
        "meta_mean_motion": 13.99838679,
        "meta_eccentricity": 0.0055852,
        "meta_inclination": 98.8866,
        "meta_ra_of_asc_node": 19.1675,
        "meta_arg_of_pericenter": 216.3178,
        "meta_mean_anomaly": 143.4191,
        "meta_ephemeris_type": 0,
        "meta_classification_type": "U",
        "meta_norad_cat_id": 30749,
        "meta_element_set_no": 999,
        "meta_rev_at_epoch": 96047,
        "meta_bstar": 1.5642439e-05,
        "meta_mean_motion_dot": -2e-07,
        "meta_mean_motion_ddot": 0,
        "tle_line1": "1 30749U 99025ATK 25352.52880146 -.00000020  00000+0  15642-4 0  9993",
        "tle_line2": "2 30749  98.8866  19.1675 0055852 216.3178 143.4191 13.99838679960474"
      },
      "geometry": {
        "type": "Point",
        "coordinates": [
          -149.14463706245093,
          51.263629940664934
        ]
      }
    }
  ]
}